2023-050D               
1 56165U 23050D   23096.54910441  .00000011  00000+0  00000+0 0  9991
2 56165  81.0019 111.2503 0006080 212.1452 147.9332 13.84702989   480
2023-050E               
1 56166U 23050E   23096.76567941  .00000011  00000+0  00000+0 0  9999
2 56166  80.9992 111.0415 0006028 210.1841 149.8970 13.84768945   518
2023-050F               
1 56167U 23050F   23096.76561732  .00000011  00000+0  00000+0 0  9992
2 56167  81.0021 111.0424 0006251 210.7600 149.3207 13.84789622   514
2023-050G               
1 56168U 23050G   23096.76548679  .00000011  00000+0  00000+0 0  9998
2 56168  81.0011 111.0428 0006128 208.0289 152.0538 13.84834034   510
2023-050H               
1 56169U 23050H   23096.76535085  .00000011  00000+0  00000+0 0  9996
2 56169  81.0007 111.0422 0006454 205.2945 154.7896 13.84879639   516
2023-050J               
1 56170U 23050J   23096.76393292  .00000011  00000+0  00000+0 0  9990
2 56170  81.0003 111.0385 0008695 198.6608 161.4231 13.85356908   510
2023-050K               
1 56171U 23050K   23096.76375381  .00000011  00000+0  00000+0 0  9990
2 56171  81.0002 111.0396 0009260 196.7826 163.3029 13.85417397   518
